HYLAS 1                 
1 37237U 10065A   17345.14459616 -.00000241  00000-0  00000-0 0  9998
2 37237   0.0342  35.8371 0001944 248.3876 174.3754  1.00269874 25809
